OBJECT_NAME,OBJECT_ID,EPOCH,MEAN_MOTION,ECCENTRICITY,INCLINATION,RA_OF_ASC_NODE,ARG_OF_PERICENTER,MEAN_ANOMALY,EPHEMERIS_TYPE,CLASSIFICATION_TYPE,NORAD_CAT_ID,ELEMENT_SET_NO,REV_AT_EPOCH,BSTAR,MEAN_MOTION_DOT,MEAN_MOTION_DDOT
STARLINK-4612,2022-107BC,2026-06-27T06:00:02.000160,15.24238962,.00013352,53.1629,131.6699,75.4893,153.0502,0,U,53750,999,579,.27718733E-1,.73643E-2,0
SHERPA-LTC2,2022-107BG,2026-06-27T06:00:42.650496,14.69793831,.0393055,53.2340,177.7267,254.3007,101.4288,0,U,53754,999,20402,.20488929E-3,.3863E-4,0
CENTISPACE-1 S3,2022-108A,2026-06-27T06:17:51.512928,14.61264409,.0010006,53.5340,13.5972,21.7769,338.3630,0,U,53757,999,20300,.13099772E-3,.462E-5,0
CENTISPACE-1 S4,2022-108B,2026-06-27T05:48:27.119520,14.61948167,.00091665,53.5315,11.1518,10.6836,349.4332,0,U,53758,999,20303,.15572543E-3,.596E-5,0
YAOGAN-35 05A,2022-109A,2026-06-26T22:59:22.776864,15.22949481,.00015302,35.0073,277.4797,73.5529,286.5354,0,U,53760,999,21210,.42589074E-3,.10221E-3,0
YAOGAN-35 05B,2022-109B,2026-06-26T21:14:30.783264,15.39363698,.0004616,34.9779,246.7140,261.9224,98.0972,0,U,53761,999,21236,.63535E-3,.2558E-3,0
YAOGAN-35 05C,2022-109D,2026-06-26T16:04:46.334208,15.23656290,.00030401,34.9926,297.3003,343.2766,16.7848,0,U,53763,999,21182,.30837598E-3,.7546E-4,0
EUTELSAT KONNECT VHTS,2022-110A,2026-06-27T03:57:48.888288,1.00270163,.00029058,0.0630,99.5379,340.2333,257.6742,0,U,53765,999,693,0,.28E-6,0
STARLINK-4718,2022-111A,2026-06-27T05:30:11.881152,15.08822043,.00012504,53.1587,152.1439,79.3152,280.7980,0,U,53773,999,21038,-.15498386E-4,-.534E-5,0
STARLINK-4719,2022-111B,2026-06-27T05:24:52.603776,15.08829240,.00011729,53.1592,152.1211,81.3943,278.7181,0,U,53774,999,21024,.32945681E-4,.236E-5,0
STARLINK-4722,2022-111C,2026-06-27T06:00:02.000160,15.16659262,.00018344,53.1606,142.2128,93.1572,313.4273,0,U,53775,999,524,.29535657E-1,.622384E-2,0
STARLINK-4664,2022-111E,2026-06-27T04:22:39.568224,15.08833156,.00015255,53.1591,142.5881,93.8569,266.2597,0,U,53777,999,21022,.27193E-7,-.288E-5,0
STARLINK-4709,2022-111F,2026-06-27T05:01:40.774944,15.08834787,.00013858,53.1587,147.0368,83.1518,276.9631,0,U,53778,999,21016,.2980541E-5,-.241E-5,0
STARLINK-4706,2022-111G,2026-06-27T06:00:02.000160,15.17745115,.00019968,53.1598,142.0940,61.0994,47.1776,0,U,53779,999,580,.45721808E-2,.94325E-3,0
STARLINK-4678,2022-111H,2026-06-27T04:27:55.914048,15.08850974,.0001318,53.1593,142.6124,75.6349,284.4789,0,U,53780,999,21022,.13454273E-3,.1855E-4,0
STARLINK-4462,2022-111J,2026-06-27T04:01:27.087168,15.08832211,.00013968,53.1588,142.4982,91.8531,268.2621,0,U,53781,999,21022,-.70609542E-4,-.1411E-4,0
STARLINK-4679,2022-111K,2026-06-27T01:10:00.894144,16.19154400,.0004977,53.2077,104.7570,243.2906,116.7625,0,U,53782,999,21073,.66864395E-3,.1243427E-1,.11775523E-4
STARLINK-4536,2022-111L,2026-06-27T05:26:13.081056,15.08836879,.00014332,53.1602,142.1541,86.7817,273.3338,0,U,53783,999,21023,.83861718E-4,.1047E-4,0
STARLINK-4687,2022-111M,2026-06-27T06:00:02.000160,15.18153593,.00024406,53.1602,141.9912,80.4677,78.7314,0,U,53784,999,575,.4579317E-2,.95609E-3,0
STARLINK-4743,2022-111Q,2026-06-27T05:13:44.589216,15.09936005,.00013105,53.1612,142.1006,80.4045,279.7095,0,U,53787,999,21023,.78693676E-2,.131186E-2,0
STARLINK-4666,2022-111S,2026-06-27T03:24:16.634880,15.08861159,.00012136,53.1571,142.3369,81.2517,278.8611,0,U,53789,999,21021,.90351151E-3,.14129E-3,0
STARLINK-4734,2022-111T,2026-06-27T06:00:02.000160,15.13908065,.00025829,53.1593,141.9628,90.5085,81.6594,0,U,53790,999,569,.47914041E-2,.88564E-3,0
STARLINK-4739,2022-111V,2026-06-27T06:00:02.000160,15.16088834,.00004582,53.1603,142.3773,149.3765,166.3053,0,U,53792,999,569,.47665336E-2,.93784E-3,0
STARLINK-4728,2022-111W,2026-06-27T06:00:02.000160,15.12388929,.0002117,53.1594,141.9084,76.9549,121.0969,0,U,53793,999,580,.30178853E-2,.53079E-3,0
STARLINK-4730,2022-111X,2026-06-27T06:00:02.000160,15.14232947,.0002424,53.1590,141.9237,91.9348,98.9296,0,U,53794,999,580,.47084271E-2,.87816E-3,0
STARLINK-4742,2022-111Y,2026-06-27T04:54:22.671648,15.08829405,.00013546,53.1595,142.0161,86.5420,273.5726,0,U,53795,999,21022,.16541198E-4,-.25E-6,0
STARLINK-4723,2022-111AA,2026-06-27T04:36:47.211840,15.09837396,.00010043,53.1605,141.9417,70.5983,289.5117,0,U,53797,999,21021,.72104877E-2,.119657E-2,0
STARLINK-4712,2022-111AB,2026-06-27T06:00:02.000160,15.12763354,.00013107,53.1600,141.7082,118.9739,182.9510,0,U,53798,999,579,.30933109E-2,.55E-3,0
STARLINK-4710,2022-111AC,2026-06-27T06:00:02.000160,15.22458385,.00007784,53.1596,131.7071,81.2857,232.3022,0,U,53799,999,565,.50360884E-1,.1295483E-1,0
STARLINK-4720,2022-111AD,2026-06-26T23:35:02.955840,15.61688655,.00034514,53.2074,72.0431,110.3597,249.7789,0,U,53800,999,21118,.51370345E-3,.44851E-3,0
STARLINK-4715,2022-111AE,2026-06-27T06:00:02.000160,15.19403995,.00006039,53.1594,131.6026,87.4644,278.8001,0,U,53801,999,579,.48633799E-2,.105443E-2,0
STARLINK-4726,2022-111AF,2026-06-27T06:00:02.000160,15.22343403,.00009238,53.1594,131.5831,72.0978,305.1820,0,U,53802,999,580,.50687678E-1,.1299895E-1,0
STARLINK-4727,2022-111AG,2026-06-27T02:26:43.229472,15.08829800,.00021513,53.1619,117.8420,73.3889,286.7338,0,U,53803,999,21054,-.43382785E-4,-.979E-5,0
STARLINK-4729,2022-111AH,2026-06-27T03:30:19.148544,15.08818057,.00012407,53.1598,127.3807,80.0166,280.0966,0,U,53804,999,21041,.12295972E-3,.1668E-4,0
STARLINK-4763,2022-111AJ,2026-06-27T02:38:42.761760,15.08834854,.00012317,53.1597,117.8886,86.0452,274.0680,0,U,53805,999,21054,.3991122E-5,-.224E-5,0
STARLINK-4768,2022-111AK,2026-06-27T03:35:34.816128,15.08833078,.00014046,53.1606,117.4255,92.5406,267.5747,0,U,53806,999,21055,-.10480387E-4,-.455E-5,0
BLUEWALKER-3,2022-111AL,2026-06-26T20:38:41.115840,15.38390554,.0005465,53.2302,348.5562,191.5277,168.5604,0,U,53807,999,21169,.17470058E-3,.6324E-4,0
ZHONGXING-1E,2022-112A,2026-06-27T04:20:16.734336,1.00272037,.00002038,0.0131,119.3548,210.6280,91.8005,0,U,53813,999,1394,0,-.138E-5,0
STRIX-1,2022-113A,2026-06-27T06:08:23.031168,15.40218601,.00044579,97.4497,240.4613,179.4569,180.6682,0,U,53815,999,20899,.66736797E-3,.26801E-3,0
STARLINK-4738,2022-114B,2026-06-27T06:00:02.000160,15.14679831,.00007893,53.1601,171.9393,71.7976,303.9848,0,U,53819,999,574,.12561519E-2,.23289E-3,0
STARLINK-4758,2022-114C,2026-06-27T06:52:22.756800,15.08828620,.00010013,53.1583,172.1829,75.3834,284.7269,0,U,53820,999,20937,.5606587E-4,.604E-5,0
STARLINK-4748,2022-114F,2026-06-27T03:02:29.187744,15.08836390,.00017982,53.1616,127.6686,94.7854,265.3343,0,U,53823,999,20998,.39616573E-4,.342E-5,0
STARLINK-4757,2022-114G,2026-06-27T06:36:20.113920,15.08830803,.0001352,53.1584,171.4206,74.9796,285.1345,0,U,53824,999,20929,.13920734E-4,-.66E-6,0
STARLINK-4751,2022-114H,2026-06-27T06:41:45.875616,15.08835257,.00012087,53.1580,172.1382,84.5950,275.5179,0,U,53825,999,20937,-.3534541E-4,-.85E-5,0
STARLINK-4756,2022-114J,2026-06-27T06:15:14.385888,15.08838604,.00007439,53.1600,172.0281,54.4591,305.6470,0,U,53826,999,20937,.1342154E-5,-.266E-5,0
STARLINK-4764,2022-114K,2026-06-27T06:31:09.202656,15.08836609,.00011819,53.1591,172.0921,88.6183,271.4944,0,U,53827,999,20937,-.42932975E-4,-.971E-5,0
STARLINK-4760,2022-114L,2026-06-27T06:09:55.227744,15.08830041,.00009742,53.1586,172.0030,93.0563,267.0540,0,U,53828,999,20937,.62552502E-4,.708E-5,0
STARLINK-4759,2022-114M,2026-06-27T06:25:50.521440,15.08834484,.00010838,53.1583,172.0690,75.7220,284.3891,0,U,53829,999,20937,-.24122239E-4,-.672E-5,0
STARLINK-4761,2022-114N,2026-06-27T05:59:18.829536,15.08833975,.00012332,53.1592,171.9589,83.7870,276.3262,0,U,53830,999,20937,.5379365E-5,-.202E-5,0
STARLINK-4649,2022-114P,2026-06-27T06:20:32.242848,15.08832026,.00012066,53.1585,172.0478,82.8070,277.3059,0,U,53831,999,20937,-.28936008E-4,-.748E-5,0
STARLINK-4747,2022-114Q,2026-06-27T05:48:42.269760,15.08836114,.00011467,53.1586,171.9129,79.8826,280.2295,0,U,53832,999,20937,.33482206E-4,.245E-5,0
STARLINK-4771,2022-114R,2026-06-27T06:06:00.702720,15.08828589,.00012323,53.1585,171.9863,86.7276,273.3856,0,U,53833,999,20937,-.43473173E-4,-.98E-5,0
STARLINK-4737,2022-114S,2026-06-27T07:13:28.708608,15.08832122,.00008154,53.1589,171.5695,67.8991,292.2087,0,U,53834,999,20938,.31737693E-4,.217E-5,0
STARLINK-4783,2022-114T,2026-06-27T05:54:00.750528,15.08846013,.00012186,53.1583,171.9354,83.1367,276.9763,0,U,53835,999,20937,-.14355234E-3,-.2572E-4,0
STARLINK-4778,2022-114U,2026-06-27T06:00:02.000160,15.55304384,.00010112,53.2173,153.0921,75.8658,242.6479,0,U,53836,999,556,.74886466E-2,.554084E-2,0
STARLINK-4776,2022-114V,2026-06-27T07:18:47.007936,15.08833988,.00012283,53.1592,171.5922,83.7404,276.3728,0,U,53837,999,20938,.50812357E-4,.521E-5,0
STARLINK-4773,2022-114W,2026-06-27T06:43:05.661696,15.08833403,.00012449,53.1606,162.1639,84.6329,275.4805,0,U,53838,999,20951,.28727128E-4,.169E-5,0
STARLINK-4784,2022-114X,2026-06-27T05:18:18.911808,15.08835352,.00011853,53.1589,162.5059,74.9659,285.1464,0,U,53839,999,20950,.71975482E-4,.858E-5,0
STARLINK-4766,2022-114Y,2026-06-27T06:32:31.658496,15.29353648,.00013392,53.1611,160.7162,88.4050,271.7104,0,U,53840,999,20953,.2959033E-4,.498E-5,0
STARLINK-4750,2022-114Z,2026-06-27T06:37:47.316576,15.08831878,.00012638,53.1598,162.1397,84.1381,275.9755,0,U,53841,999,20951,.35774767E-4,.281E-5,0
STARLINK-4754,2022-114AA,2026-06-27T06:16:33.903264,15.08829123,.00012636,53.1593,162.0478,86.3260,273.7876,0,U,53842,999,20951,.25322048E-4,.115E-5,0
STARLINK-4769,2022-114AB,2026-06-27T06:32:29.054400,15.08829698,.00016092,53.1585,162.1154,82.1971,277.9203,0,U,53843,999,20951,.7949863E-4,.977E-5,0
STARLINK-4745,2022-114AC,2026-06-27T06:17:34.249344,15.08025101,.00007002,53.1600,162.0748,121.0804,239.0256,0,U,53844,999,20951,.9828638E-5,-.132E-5,0
STARLINK-4753,2022-114AD,2026-06-27T06:21:52.615584,15.08828110,.00012413,53.1589,162.0902,83.5005,276.6128,0,U,53845,999,20951,.11811584E-4,-.1E-5,0
